[{"OBJECT_NAME":"SES-2","OBJECT_ID":"2011-049A","EPOCH":"2026-03-05T17:37:13.996128","MEAN_MOTION":1.00271914,"ECCENTRICITY":0.0002909,"INCLINATION":0.0225,"RA_OF_ASC_NODE":76.3318,"ARG_OF_PERICENTER":269.052,"MEAN_ANOMALY":355.3726,"EPHEMERIS_TYPE":0,"CLASSIFICATION_TYPE":"U","NORAD_CAT_ID":37809,"ELEMENT_SET_NO":999,"REV_AT_EPOCH":5292,"BSTAR":0,"MEAN_MOTION_DOT":-2.02e-6,"MEAN_MOTION_DDOT":0},{"OBJECT_NAME":"QUETZSAT 1","OBJECT_ID":"2011-054A","EPOCH":"2026-03-05T13:37:51.280032","MEAN_MOTION":1.0027101,"ECCENTRICITY":0.0002784,"INCLINATION":0.051,"RA_OF_ASC_NODE":291.2254,"ARG_OF_PERICENTER":71.4511,"MEAN_ANOMALY":288.071,"EPHEMERIS_TYPE":0,"CLASSIFICATION_TYPE":"U","NORAD_CAT_ID":37826,"ELEMENT_SET_NO":999,"REV_AT_EPOCH":4883,"BSTAR":0,"MEAN_MOTION_DOT":-2.49e-6,"MEAN_MOTION_DDOT":0},{"OBJECT_NAME":"SES-4","OBJECT_ID":"2012-007A","EPOCH":"2026-03-05T10:28:09.470208","MEAN_MOTION":1.00260475,"ECCENTRICITY":0.0002347,"INCLINATION":0.0359,"RA_OF_ASC_NODE":66.5072,"ARG_OF_PERICENTER":256.9214,"MEAN_ANOMALY":334.7775,"EPHEMERIS_TYPE":0,"CLASSIFICATION_TYPE":"U","NORAD_CAT_ID":38087,"ELEMENT_SET_NO":999,"REV_AT_EPOCH":5118,"BSTAR":0,"MEAN_MOTION_DOT":-1.78e-6,"MEAN_MOTION_DDOT":0},{"OBJECT_NAME":"SES-5","OBJECT_ID":"2012-036A","EPOCH":"2026-03-05T15:43:54.194304","MEAN_MOTION":1.00270058,"ECCENTRICITY":0.0002126,"INCLINATION":0.0592,"RA_OF_ASC_NODE":310.902,"ARG_OF_PERICENTER":30.0969,"MEAN_ANOMALY":63.3269,"EPHEMERIS_TYPE":0,"CLASSIFICATION_TYPE":"U","NORAD_CAT_ID":38652,"ELEMENT_SET_NO":999,"REV_AT_EPOCH":4341,"BSTAR":0,"MEAN_MOTION_DOT":2.6e-7,"MEAN_MOTION_DDOT":0},{"OBJECT_NAME":"ASTRA 2F","OBJECT_ID":"2012-051A","EPOCH":"2026-03-05T15:45:36.679392","MEAN_MOTION":1.00276075,"ECCENTRICITY":0.0002395,"INCLINATION":0.0943,"RA_OF_ASC_NODE":260.4654,"ARG_OF_PERICENTER":9.9493,"MEAN_ANOMALY":157.58,"EPHEMERIS_TYPE":0,"CLASSIFICATION_TYPE":"U","NORAD_CAT_ID":38778,"ELEMENT_SET_NO":999,"REV_AT_EPOCH":4009,"BSTAR":0,"MEAN_MOTION_DOT":1.43e-6,"MEAN_MOTION_DDOT":0},{"OBJECT_NAME":"SES-6","OBJECT_ID":"2013-026A","EPOCH":"2026-03-05T13:07:27.470208","MEAN_MOTION":1.00271853,"ECCENTRICITY":0.0001842,"INCLINATION":0.0636,"RA_OF_ASC_NODE":289.8236,"ARG_OF_PERICENTER":63.8419,"MEAN_ANOMALY":325.9573,"EPHEMERIS_TYPE":0,"CLASSIFICATION_TYPE":"U","NORAD_CAT_ID":39172,"ELEMENT_SET_NO":999,"REV_AT_EPOCH":4668,"BSTAR":0,"MEAN_MOTION_DOT":-2.69e-6,"MEAN_MOTION_DDOT":0},{"OBJECT_NAME":"O3B FM5","OBJECT_ID":"2013-031A","EPOCH":"2026-03-05T11:55:26.652864","MEAN_MOTION":5.00116468,"ECCENTRICITY":0.0003333,"INCLINATION":0.0979,"RA_OF_ASC_NODE":13.7652,"ARG_OF_PERICENTER":321.5725,"MEAN_ANOMALY":24.6406,"EPHEMERIS_TYPE":0,"CLASSIFICATION_TYPE":"U","NORAD_CAT_ID":39188,"ELEMENT_SET_NO":999,"REV_AT_EPOCH":23185,"BSTAR":0,"MEAN_MOTION_DOT":-2.7e-7,"MEAN_MOTION_DDOT":0},{"OBJECT_NAME":"O3B FM4","OBJECT_ID":"2013-031B","EPOCH":"2026-03-05T09:59:11.240448","MEAN_MOTION":5.00115202,"ECCENTRICITY":0.0005086,"INCLINATION":0.0553,"RA_OF_ASC_NODE":345.1362,"ARG_OF_PERICENTER":8.5792,"MEAN_ANOMALY":6.2723,"EPHEMERIS_TYPE":0,"CLASSIFICATION_TYPE":"U","NORAD_CAT_ID":39189,"ELEMENT_SET_NO":999,"REV_AT_EPOCH":23185,"BSTAR":0,"MEAN_MOTION_DOT":-2.7e-7,"MEAN_MOTION_DDOT":0},{"OBJECT_NAME":"O3B FM2","OBJECT_ID":"2013-031C","EPOCH":"2026-03-05T11:33:46.060704","MEAN_MOTION":5.00116009,"ECCENTRICITY":0.0002843,"INCLINATION":0.0563,"RA_OF_ASC_NODE":338.957,"ARG_OF_PERICENTER":1.3994,"MEAN_ANOMALY":19.6268,"EPHEMERIS_TYPE":0,"CLASSIFICATION_TYPE":"U","NORAD_CAT_ID":39190,"ELEMENT_SET_NO":999,"REV_AT_EPOCH":23192,"BSTAR":0,"MEAN_MOTION_DOT":-2.7e-7,"MEAN_MOTION_DDOT":0},{"OBJECT_NAME":"O3B PFM","OBJECT_ID":"2013-031D","EPOCH":"2026-03-05T11:54:05.468832","MEAN_MOTION":5.00115985,"ECCENTRICITY":0.0005139,"INCLINATION":0.0667,"RA_OF_ASC_NODE":7.363,"ARG_OF_PERICENTER":351.6812,"MEAN_ANOMALY":0.9489,"EPHEMERIS_TYPE":0,"CLASSIFICATION_TYPE":"U","NORAD_CAT_ID":39191,"ELEMENT_SET_NO":999,"REV_AT_EPOCH":23148,"BSTAR":0,"MEAN_MOTION_DOT":-2.7e-7,"MEAN_MOTION_DDOT":0},{"OBJECT_NAME":"ASTRA 2E","OBJECT_ID":"2013-056A","EPOCH":"2026-03-05T15:45:36.689760","MEAN_MOTION":1.00272675,"ECCENTRICITY":0.0002187,"INCLINATION":0.0715,"RA_OF_ASC_NODE":32.9201,"ARG_OF_PERICENTER":306.2452,"MEAN_ANOMALY":89.0929,"EPHEMERIS_TYPE":0,"CLASSIFICATION_TYPE":"U","NORAD_CAT_ID":39285,"ELEMENT_SET_NO":999,"REV_AT_EPOCH":4537,"BSTAR":0,"MEAN_MOTION_DOT":1.43e-6,"MEAN_MOTION_DDOT":0},{"OBJECT_NAME":"SES-8","OBJECT_ID":"2013-071A","EPOCH":"2026-03-05T18:25:54.732576","MEAN_MOTION":1.00272679,"ECCENTRICITY":0.0001712,"INCLINATION":0.0548,"RA_OF_ASC_NODE":271.7293,"ARG_OF_PERICENTER":99.748,"MEAN_ANOMALY":163.489,"EPHEMERIS_TYPE":0,"CLASSIFICATION_TYPE":"U","NORAD_CAT_ID":39460,"ELEMENT_SET_NO":999,"REV_AT_EPOCH":4340,"BSTAR":0,"MEAN_MOTION_DOT":-2.76e-6,"MEAN_MOTION_DDOT":0},{"OBJECT_NAME":"ASTRA 5B","OBJECT_ID":"2014-011B","EPOCH":"2026-03-05T17:11:19.966848","MEAN_MOTION":1.00271717,"ECCENTRICITY":0.0004072,"INCLINATION":0.0882,"RA_OF_ASC_NODE":299.9851,"ARG_OF_PERICENTER":27.9454,"MEAN_ANOMALY":116.8177,"EPHEMERIS_TYPE":0,"CLASSIFICATION_TYPE":"U","NORAD_CAT_ID":39617,"ELEMENT_SET_NO":999,"REV_AT_EPOCH":4363,"BSTAR":0,"MEAN_MOTION_DOT":1.3e-6,"MEAN_MOTION_DDOT":0},{"OBJECT_NAME":"O3B FM3","OBJECT_ID":"2014-038A","EPOCH":"2026-03-05T13:30:01.723680","MEAN_MOTION":5.0011563,"ECCENTRICITY":6.24e-5,"INCLINATION":0.053,"RA_OF_ASC_NODE":353.4032,"ARG_OF_PERICENTER":56.376,"MEAN_ANOMALY":310.2204,"EPHEMERIS_TYPE":0,"CLASSIFICATION_TYPE":"U","NORAD_CAT_ID":40079,"ELEMENT_SET_NO":999,"REV_AT_EPOCH":20785,"BSTAR":0,"MEAN_MOTION_DOT":-2.7e-7,"MEAN_MOTION_DDOT":0},{"OBJECT_NAME":"O3B FM7","OBJECT_ID":"2014-038B","EPOCH":"2026-03-02T07:26:54.646080","MEAN_MOTION":5.00115622,"ECCENTRICITY":0.00044887,"INCLINATION":0.0588,"RA_OF_ASC_NODE":348.9474,"ARG_OF_PERICENTER":339.4059,"MEAN_ANOMALY":31.6123,"EPHEMERIS_TYPE":0,"CLASSIFICATION_TYPE":"U","NORAD_CAT_ID":40080,"ELEMENT_SET_NO":999,"REV_AT_EPOCH":21253,"BSTAR":0,"MEAN_MOTION_DOT":-2.9e-7,"MEAN_MOTION_DDOT":0},{"OBJECT_NAME":"O3B FM6","OBJECT_ID":"2014-038C","EPOCH":"2026-03-05T08:03:26.513856","MEAN_MOTION":5.00115721,"ECCENTRICITY":0.000266,"INCLINATION":0.0549,"RA_OF_ASC_NODE":351.2781,"ARG_OF_PERICENTER":350.0303,"MEAN_ANOMALY":18.6758,"EPHEMERIS_TYPE":0,"CLASSIFICATION_TYPE":"U","NORAD_CAT_ID":40081,"ELEMENT_SET_NO":999,"REV_AT_EPOCH":21263,"BSTAR":0,"MEAN_MOTION_DOT":-2.7e-7,"MEAN_MOTION_DDOT":0},{"OBJECT_NAME":"O3B FM8","OBJECT_ID":"2014-038D","EPOCH":"2026-03-04T14:08:51.008064","MEAN_MOTION":5.00115977,"ECCENTRICITY":0.0002658,"INCLINATION":0.0558,"RA_OF_ASC_NODE":350.6431,"ARG_OF_PERICENTER":354.8269,"MEAN_ANOMALY":14.516,"EPHEMERIS_TYPE":0,"CLASSIFICATION_TYPE":"U","NORAD_CAT_ID":40082,"ELEMENT_SET_NO":999,"REV_AT_EPOCH":21271,"BSTAR":0,"MEAN_MOTION_DOT":-2.7e-7,"MEAN_MOTION_DDOT":0}]
